<?xml version="1.0" encoding="UTF-8" standalone="no" ?>
<gpx xmlns="http://www.topografix.com/GPX/1/1" version="1.1" creator="OwnTracks">
<trk><trkseg>
<trkpt lat="52.509998" lon="13.419901"><ele>66.71</ele><time>2026-09-02T19:40:44Z</time></trkpt>
<trkpt lat="52.516569" lon="13.402709"><ele>33.78</ele><time>2026-09-02T19:45:50Z</time></trkpt>
<trkpt lat="52.517415" lon="13.383984"><ele>42.55</ele><time>2026-09-02T19:50:56Z</time></trkpt>
<trkpt lat="52.525582" lon="13.373768"><ele>35.09</ele><time>2026-09-02T19:55:57Z</time></trkpt>
<trkpt lat="52.531549" lon="13.369192"><ele>40.81</ele><time>2026-09-02T20:01:07Z</time></trkpt>
<trkpt lat="52.531544" lon="13.369191"><ele>36.40</ele><time>2026-09-02T20:01:15Z</time></trkpt>
<trkpt lat="52.531548" lon="13.369192"><ele>36.33</ele><time>2026-09-02T20:01:17Z</time></trkpt>
<trkpt lat="52.531469" lon="13.369442"><ele>50.09</ele><time>2026-09-02T20:27:33Z</time></trkpt>
<trkpt lat="52.531471" lon="13.369443"><ele>48.73</ele><time>2026-09-03T06:47:12Z</time></trkpt>
<trkpt lat="52.533351" lon="13.367905"><ele>36.88</ele><time>2026-09-03T14:04:54Z</time></trkpt>
<trkpt lat="52.533590" lon="13.368219"><ele>38.26</ele><time>2026-09-03T14:15:11Z</time></trkpt>
<trkpt lat="52.531458" lon="13.369438"><ele>41.02</ele><time>2026-09-03T15:20:05Z</time></trkpt>
<trkpt lat="52.531472" lon="13.369437"><ele>49.43</ele><time>2026-09-03T15:29:16Z</time></trkpt>
<trkpt lat="52.527814" lon="13.373253"><ele>37.55</ele><time>2026-09-04T13:09:50Z</time></trkpt>
<trkpt lat="52.528909" lon="13.378771"><ele>34.29</ele><time>2026-09-04T13:11:53Z</time></trkpt>
<trkpt lat="52.529004" lon="13.402484"><ele>0.00</ele><time>2026-09-04T13:16:57Z</time></trkpt>
<trkpt lat="52.524330" lon="13.420596"><ele>41.34</ele><time>2026-09-04T13:21:59Z</time></trkpt>
<trkpt lat="52.527246" lon="13.451051"><ele>54.92</ele><time>2026-09-04T13:27:26Z</time></trkpt>
<trkpt lat="52.524487" lon="13.458934"><ele>52.17</ele><time>2026-09-04T13:30:20Z</time></trkpt>
<trkpt lat="52.524408" lon="13.458927"><ele>53.77</ele><time>2026-09-04T13:33:37Z</time></trkpt>
<trkpt lat="52.520698" lon="13.454594"><ele>49.36</ele><time>2026-09-04T15:08:53Z</time></trkpt>
<trkpt lat="52.518978" lon="13.453869"><ele>42.39</ele><time>2026-09-04T15:09:30Z</time></trkpt>
<trkpt lat="52.517863" lon="13.434712"><ele>39.46</ele><time>2026-09-04T15:14:33Z</time></trkpt>
<trkpt lat="52.519396" lon="13.425643"><ele>39.44</ele><time>2026-09-04T15:17:18Z</time></trkpt>
<trkpt lat="52.523788" lon="13.413071"><ele>35.80</ele><time>2026-09-04T15:19:38Z</time></trkpt>
<trkpt lat="52.528846" lon="13.398214"><ele>35.31</ele><time>2026-09-04T15:24:50Z</time></trkpt>
<trkpt lat="52.527994" lon="13.381555"><ele>35.41</ele><time>2026-09-04T15:28:07Z</time></trkpt>
<trkpt lat="52.528699" lon="13.376288"><ele>38.38</ele><time>2026-09-04T15:29:59Z</time></trkpt>
<trkpt lat="52.531549" lon="13.369192"><ele>36.40</ele><time>2026-09-04T15:33:37Z</time></trkpt>
<trkpt lat="52.531436" lon="13.369487"><ele>36.41</ele><time>2026-09-04T15:35:01Z</time></trkpt>
<trkpt lat="52.531464" lon="13.369438"><ele>40.38</ele><time>2026-09-04T15:36:16Z</time></trkpt>
<trkpt lat="52.531475" lon="13.369427"><ele>52.21</ele><time>2026-09-04T16:12:35Z</time></trkpt>
<trkpt lat="52.528099" lon="13.374429"><ele>43.61</ele><time>2026-09-05T10:04:50Z</time></trkpt>
<trkpt lat="52.530556" lon="13.382449"><ele>38.06</ele><time>2026-09-05T10:09:32Z</time></trkpt>
<trkpt lat="52.530535" lon="13.382479"><ele>37.88</ele><time>2026-09-05T10:09:35Z</time></trkpt>
<trkpt lat="52.523805" lon="13.397236"><ele>32.65</ele><time>2026-09-05T10:14:52Z</time></trkpt>
<trkpt lat="52.522645" lon="13.409816"><ele>34.66</ele><time>2026-09-05T10:19:53Z</time></trkpt>
<trkpt lat="52.525451" lon="13.419099"><ele>40.17</ele><time>2026-09-05T10:25:15Z</time></trkpt>
<trkpt lat="52.528666" lon="13.424407"><ele>40.46</ele><time>2026-09-05T10:30:25Z</time></trkpt>
<trkpt lat="52.532490" lon="13.430638"><ele>46.07</ele><time>2026-09-05T10:35:42Z</time></trkpt>
<trkpt lat="52.532494" lon="13.430629"><ele>46.07</ele><time>2026-09-05T10:46:40Z</time></trkpt>
<trkpt lat="52.529446" lon="13.425031"><ele>42.68</ele><time>2026-09-05T10:54:14Z</time></trkpt>
<trkpt lat="52.528549" lon="13.423908"><ele>43.49</ele><time>2026-09-05T10:54:37Z</time></trkpt>
<trkpt lat="52.529706" lon="13.401256"><ele>37.70</ele><time>2026-09-05T10:59:34Z</time></trkpt>
<trkpt lat="52.529335" lon="13.375176"><ele>38.86</ele><time>2026-09-05T11:04:35Z</time></trkpt>
<trkpt lat="52.532959" lon="13.372864"><ele>38.73</ele><time>2026-09-05T11:20:20Z</time></trkpt>
<trkpt lat="52.533447" lon="13.367629"><ele>33.92</ele><time>2026-09-05T15:30:45Z</time></trkpt>
<trkpt lat="52.532371" lon="13.366408"><ele>39.87</ele><time>2026-09-05T15:41:32Z</time></trkpt>
<trkpt lat="52.532370" lon="13.366402"><ele>38.77</ele><time>2026-09-05T15:41:50Z</time></trkpt>
<trkpt lat="52.531474" lon="13.369430"><ele>52.39</ele><time>2026-09-05T16:33:09Z</time></trkpt>
</trkseg></trk></gpx>